NORAD_CAT_ID,OBJECT_NAME,OBJECT_TYPE,EPOCH,MEAN_MOTION,ECCENTRICITY,INCLINATION,RA_OF_ASC_NODE,ARG_OF_PERICENTER,MEAN_ANOMALY,BSTAR,MEAN_MOTION_DOT,MEAN_MOTION_DDOT,TLE_LINE0,TLE_LINE1,TLE_LINE2,SEMIMAJOR_AXIS,PERIOD,APOGEE,PERIGEE,DECAYED
55765.0,STARLINK-5595,PAYLOAD,2023-10-13 16:36:53,14.98326865,0.0002502,70.0004,278.354,271.6117,88.4755,0.00013108,1.471e-05,0.0,0 STARLINK-5595,1 55765U 23028AA  23286.69228964  .00001471  00000-0  13108-3 0  9999,2 55765  70.0004 278.3540 0002502 271.6117  88.4755 14.98326865 35012,6950.203,96.107,573.807,570.329,0.0
55765.0,STARLINK-5595,PAYLOAD,2023-10-14 05:25:58,14.98333974,0.0002811,69.9991,277.0085,265.8633,94.2205,1.3761e-05,7.1e-07,0.0,0 STARLINK-5595,1 55765U 23028AA  23287.22636580  .00000071  00000-0  13761-4 0  9997,2 55765  69.9991 277.0085 0002811 265.8633  94.2205 14.98333974 35086,6950.181,96.107,573.999,570.092,0.0
55765.0,STARLINK-5595,PAYLOAD,2023-10-14 10:14:22,14.983327,0.0002832,69.9992,276.5034,266.3766,93.7069,7.0585e-05,7.49e-06,0.0,0 STARLINK-5595,1 55765U 23028AA  23287.42664456  .00000749  00000-0  70585-4 0  9991,2 55765  69.9992 276.5034 0002832 266.3766  93.7069 14.98332700 35124,6950.185,96.107,574.018,570.081,0.0
55765.0,STARLINK-5595,PAYLOAD,2023-10-14 16:38:54,14.98361241,0.0002275,70.0014,275.8282,281.5649,78.5255,-0.00074652,-8.996e-05,0.0,0 STARLINK-5595,1 55765U 23028AA  23287.69368692 -.00008996  00000-0 -74652-3 0  9995,2 55765  70.0014 275.8282 0002275 281.5649  78.5255 14.98361241 35152,6950.096,96.105,573.542,570.38,0.0
55765.0,STARLINK-5595,PAYLOAD,2023-10-15 02:15:43,14.9832509,0.0002972,69.9989,274.8195,270.4247,89.6571,-7.9327e-05,-1.039e-05,0.0,0 STARLINK-5595,1 55765U 23028AA  23288.09425354 -.00001039  00000-0 -79327-4 0  9995,2 55765  69.9989 274.8195 0002972 270.4247  89.6571 14.98325090 35210,6950.208,96.107,574.139,570.007,0.0
55765.0,STARLINK-5595,PAYLOAD,2023-10-15 08:40:15,14.98329466,0.0002994,69.9989,274.1469,266.3616,93.7201,-6.5608e-05,-8.76e-06,0.0,0 STARLINK-5595,1 55765U 23028AA  23288.36129042 -.00000876  00000-0 -65608-4 0  9995,2 55765  69.9989 274.1469 0002994 266.3616  93.7201 14.98329466 35267,6950.195,96.107,574.14,569.979,0.0
55765.0,STARLINK-5595,PAYLOAD,2023-10-15 16:40:55,14.98332667,0.0003077,69.9988,273.3051,271.1956,88.8851,-9.0783e-05,-1.176e-05,0.0,0 STARLINK-5595,1 55765U 23028AA  23288.69508904 -.00001176  00000-0 -90783-4 0  9995,2 55765  69.9988 273.3051 0003077 271.1956  88.8851 14.98332667 35306,6950.185,96.107,574.188,569.911,0.0
55765.0,STARLINK-5595,PAYLOAD,2023-10-16 08:42:15,14.98334185,0.0002994,69.9988,271.6214,267.8615,92.2201,2.0572e-05,1.52e-06,0.0,0 STARLINK-5595,1 55765U 23028AA  23289.36268488  .00000152  00000-0  20572-4 0  9990,2 55765  69.9988 271.6214 0002994 267.8615  92.2201 14.98334185 35416,6950.18,96.107,574.126,569.964,0.0
55765.0,STARLINK-5595,PAYLOAD,2023-10-17 08:44:17,14.98325846,0.0003023,69.9991,269.0966,269.4859,90.5954,0.00010357,1.143e-05,0.0,0 STARLINK-5595,1 55765U 23028AA  23290.36408868  .00001143  00000-0  10357-3 0  9990,2 55765  69.9991 269.0966 0003023 269.4859  90.5954 14.98325846 35552,6950.206,96.107,574.172,569.97,0.0
55765.0,STARLINK-5595,PAYLOAD,2023-10-18 02:21:46,14.98329383,0.0002857,69.9992,267.2455,269.2137,90.8695,3.7211e-06,-4.9e-07,0.0,0 STARLINK-5595,1 55765U 23028AA  23291.09844949 -.00000049  00000-0  37211-5 0  9990,2 55765  69.9992 267.2455 0002857 269.2137  90.8695 14.98329383 35675,6950.195,96.107,574.045,570.074,0.0
55765.0,STARLINK-5595,PAYLOAD,2023-10-18 05:34:00,14.983452,0.0003015,69.9991,266.9075,269.4093,90.672,0.00017397,1.984e-05,0.0,0 STARLINK-5595,1 55765U 23028AA  23291.23195564  .00001984  00000-0  17397-3 0  9997,2 55765  69.9991 266.9075 0003015 269.4093  90.6720 14.98345200 35682,6950.146,96.106,574.106,569.915,0.0
55765.0,STARLINK-5595,PAYLOAD,2023-10-18 15:10:50,14.9834213,0.0002701,70.0006,265.8981,268.3317,91.7533,-0.00021065,-2.606e-05,0.0,0 STARLINK-5595,1 55765U 23028AA  23291.63252679 -.00002606  00000-0 -21065-3 0  9993,2 55765  70.0006 265.8981 0002701 268.3317  91.7533 14.98342130 35744,6950.155,96.106,573.898,570.143,0.0
55765.0,STARLINK-5595,PAYLOAD,2023-10-19 02:23:46,14.9841237,0.0002913,70.0006,264.7194,266.183,93.8996,-0.0012699,-0.00015245,0.0,0 STARLINK-5595,1 55765U 23028AA  23292.09984718 -.00015245  00000-0 -12699-2 0  9995,2 55765  70.0006 264.7194 0002913 266.1830  93.8996 14.98412370 35817,6949.938,96.102,573.828,569.779,0.0
55765.0,STARLINK-5595,PAYLOAD,2023-10-19 07:12:10,14.9841577,0.0002774,70.0011,264.2139,272.0137,88.0704,-0.00129,-0.00015485,0.0,0 STARLINK-5595,1 55765U 23028AA  23292.30011730 -.00015485  00000-0 -12900-2 0  9995,2 55765  70.0011 264.2139 0002774 272.0137  88.0704 14.98415770 35852,6949.928,96.101,573.721,569.865,0.0
55765.0,STARLINK-5595,PAYLOAD,2023-10-19 21:37:23,14.98329335,0.0002359,70.0013,262.7024,267.2384,92.8505,4.5357e-05,4.48e-06,0.0,0 STARLINK-5595,1 55765U 23028AA  23292.90096595  .00000448  00000-0  45357-4 0  9998,2 55765  70.0013 262.7024 0002359 267.2384  92.8505 14.98329335 35942,6950.195,96.107,573.699,570.42,0.0
55765.0,STARLINK-5595,PAYLOAD,2023-10-20 02:25:48,14.98322877,0.0002559,70.0009,262.1964,258.0173,102.0699,-4.5771e-05,-6.39e-06,0.0,0 STARLINK-5595,1 55765U 23028AA  23293.10125197 -.00000639  00000-0 -45771-4 0  9996,2 55765  70.0009 262.1964 0002559 258.0173 102.0699 14.98322877 35964,6950.215,96.107,573.858,570.301,0.0
55765.0,STARLINK-5595,PAYLOAD,2023-10-20 07:14:12,14.98326805,0.0002507,70.0006,261.6906,264.693,95.3943,-1.8746e-05,-3.17e-06,0.0,0 STARLINK-5595,1 55765U 23028AA  23293.30152935 -.00000317  00000-0 -18746-4 0  9993,2 55765  70.0006 261.6906 0002507 264.6930  95.3943 14.98326805 36005,6950.203,96.107,573.81,570.325,0.0
55765.0,STARLINK-5595,PAYLOAD,2023-10-21 02:27:49,14.98326516,0.0002349,70.0008,259.672,249.5829,110.5078,-9.1784e-05,-1.188e-05,0.0,0 STARLINK-5595,1 55765U 23028AA  23294.10265266 -.00001188  00000-0 -91784-4 0  9994,2 55765  70.0008 259.6720 0002349 249.5829 110.5078 14.98326516 36111,6950.204,96.107,573.701,570.436,0.0
55765.0,STARLINK-5595,PAYLOAD,2023-10-21 07:16:13,14.98324792,0.0001971,70.0017,259.1672,267.9047,92.1887,-6.3451e-05,-8.5e-06,0.0,0 STARLINK-5595,1 55765U 23028AA  23294.30293528 -.00000850  00000-0 -63451-4 0  9993,2 55765  70.0017 259.1672 0001971 267.9047  92.1887 14.98324792 36159,6950.209,96.107,573.444,570.704,0.0
55765.0,STARLINK-5595,PAYLOAD,2023-10-21 21:41:25,14.98330506,0.0003165,70.0009,257.6502,265.67,94.4097,5.8784e-05,6.08e-06,0.0,0 STARLINK-5595,1 55765U 23028AA  23294.90376484  .00000608  00000-0  58784-4 0  9994,2 55765  70.0009 257.6502 0003165 265.6700  94.4097 14.98330506 36241,6950.191,96.107,574.256,569.857,0.0
55765.0,STARLINK-5595,PAYLOAD,2023-10-22 02:29:49,14.98331396,0.0002581,70.0006,257.1456,253.971,106.1164,7.0619e-05,7.5e-06,0.0,0 STARLINK-5595,1 55765U 23028AA  23295.10404383  .00000750  00000-0  70619-4 0  9996,2 55765  70.0006 257.1456 0002581 253.9710 106.1164 14.98331396 36269,6950.189,96.107,573.847,570.26,0.0
55765.0,STARLINK-5595,PAYLOAD,2023-10-22 07:18:13,14.98337402,0.000301,70.0011,256.6402,258.4375,101.6446,0.00011377,1.265e-05,0.0,0 STARLINK-5595,1 55765U 23028AA  23295.30431717  .00001265  00000-0  11377-3 0  9996,2 55765  70.0011 256.6402 0003010 258.4375 101.6446 14.98337402 36295,6950.17,96.107,574.127,569.943,0.0
55765.0,STARLINK-5595,PAYLOAD,2023-10-22 15:18:53,14.98331218,0.0002547,70.0014,255.7985,268.568,91.5187,4.659e-05,4.63e-06,0.0,0 STARLINK-5595,1 55765U 23028AA  23295.63812398  .00000463  00000-0  46590-4 0  9995,2 55765  70.0014 255.7985 0002547 268.5680  91.5187 14.98331218 36343,6950.189,96.107,573.824,570.284,0.0
55765.0,STARLINK-5595,PAYLOAD,2023-10-22 21:43:26,14.98280494,0.0002314,70.0014,255.125,260.2714,99.8184,0.00065974,7.777e-05,0.0,0 STARLINK-5595,1 55765U 23028AA  23295.90517306  .00007777  00000-0  65974-3 0  9997,2 55765  70.0014 255.1250 0002314 260.2714  99.8184 14.98280494 36393,6950.346,96.11,573.819,570.603,0.0
55765.0,STARLINK-5595,PAYLOAD,2023-10-23 00:55:43,14.98283962,0.0002346,70.0009,254.7887,265.6023,94.4868,0.00043096,5.047e-05,0.0,0 STARLINK-5595,1 55765U 23028AA  23296.03870186  .00005047  00000-0  43096-3 0  9999,2 55765  70.0009 254.7887 0002346 265.6023  94.4868 14.98283962 36400,6950.335,96.11,573.831,570.57,0.0
55765.0,STARLINK-5595,PAYLOAD,2023-10-23 07:20:16,14.98293169,0.0002439,70.0009,254.1154,259.4337,100.6547,0.00042075,4.926e-05,0.0,0 STARLINK-5595,1 55765U 23028AA  23296.30574104  .00004926  00000-0  42075-3 0  9991,2 55765  70.0009 254.1154 0002439 259.4337 100.6547 14.98293169 36441,6950.307,96.109,573.867,570.477,0.0
55765.0,STARLINK-5595,PAYLOAD,2023-10-23 21:45:27,14.98334801,0.0002835,69.9996,252.6005,270.0932,89.9902,-0.00010169,-1.306e-05,0.0,0 STARLINK-5595,1 55765U 23028AA  23296.90656788 -.00001306  00000-0 -10169-3 0  9996,2 55765  69.9996 252.6005 0002835 270.0932  89.9902 14.98334801 36545,6950.178,96.107,574.013,570.073,0.0
55765.0,STARLINK-5595,PAYLOAD,2023-10-24 04:09:59,14.98336189,0.0002928,69.9997,251.9282,266.9337,93.1487,-4.1669e-05,-5.9e-06,0.0,0 STARLINK-5595,1 55765U 23028AA  23297.17360425 -.00000590  00000-0 -41669-4 0  9990,2 55765  69.9997 251.9282 0002928 266.9337  93.1487 14.98336189 36570,6950.174,96.107,574.074,570.004,0.0
55765.0,STARLINK-5595,PAYLOAD,2023-10-24 13:46:47,14.98356413,0.0002964,69.9999,250.9176,272.0177,88.0642,-0.0004323,-5.251e-05,0.0,0 STARLINK-5595,1 55765U 23028AA  23297.57415848 -.00005251  00000-0 -43230-3 0  9998,2 55765  69.9999 250.9176 0002964 272.0177  88.0642 14.98356413 36649,6950.111,96.105,574.036,569.916,0.0
55765.0,STARLINK-5595,PAYLOAD,2023-10-25 07:24:16,14.9833163,0.0002809,69.9999,249.0664,269.5198,90.5639,0.00011437,1.272e-05,0.0,0 STARLINK-5595,1 55765U 23028AA  23298.30852131  .00001272  00000-0  11437-3 0  9991,2 55765  69.9999 249.0664 0002809 269.5198  90.5639 14.98331630 36741,6950.188,96.107,574.005,570.101,0.0
